NORAD_CAT_ID,OBJECT_NAME,OBJECT_TYPE,EPOCH,MEAN_MOTION,ECCENTRICITY,INCLINATION,RA_OF_ASC_NODE,ARG_OF_PERICENTER,MEAN_ANOMALY,BSTAR,MEAN_MOTION_DOT,MEAN_MOTION_DDOT,TLE_LINE0,TLE_LINE1,TLE_LINE2,SEMIMAJOR_AXIS,PERIOD,APOGEE,PERIGEE,DECAYED
52707.0,STARLINK-4007,PAYLOAD,2023-09-04 04:02:56,15.08826597,0.0001793,53.2169,292.9189,88.0823,272.0375,-5.7528e-05,-1.203e-05,0.0,0 STARLINK-4007,1 52707U 22053BD  23247.16870912 -.00001203  00000-0 -57528-4 0  9994,2 52707  53.2169 292.9189 0001793  88.0823 272.0375 15.08826597 72868,6917.921,95.438,541.027,538.546,0.0
52707.0,STARLINK-4007,PAYLOAD,2023-09-05 11:50:39,15.08835075,0.0001504,53.2165,286.9735,92.0634,268.0531,7.2717e-05,8.69e-06,0.0,0 STARLINK-4007,1 52707U 22053BD  23248.49350759  .00000869  00000-0  72717-4 0  9995,2 52707  53.2165 286.9735 0001504  92.0634 268.0531 15.08835075 72588,6917.895,95.438,540.801,538.72,0.0
52707.0,STARLINK-4007,PAYLOAD,2023-09-05 19:47:34,15.08842329,0.000159,53.2165,285.486,84.2349,275.8824,0.00011858,1.6e-05,0.0,0 STARLINK-4007,1 52707U 22053BD  23248.82470372  .00001600  00000-0  11858-3 0  9998,2 52707  53.2165 285.4860 0001590  84.2349 275.8824 15.08842329 72639,6917.873,95.437,540.838,538.638,0.0
52707.0,STARLINK-4007,PAYLOAD,2023-09-06 19:38:21,15.08848636,0.0001524,53.2153,281.0248,81.1137,279.0027,0.00024163,3.561e-05,0.0,0 STARLINK-4007,1 52707U 22053BD  23249.81829899  .00003561  00000-0  24163-3 0  9991,2 52707  53.2153 281.0248 0001524  81.1137 279.0027 15.08848636 73264,6917.854,95.437,540.773,538.665,0.0
52707.0,STARLINK-4007,PAYLOAD,2023-09-07 06:46:03,15.08844426,0.0002167,53.2169,278.9437,88.095,272.029,7.0381e-05,8.32e-06,0.0,0 STARLINK-4007,1 52707U 22053BD  23250.28198642  .00000832  00000-0  70381-4 0  9991,2 52707  53.2169 278.9437 0002167  88.0950 272.0290 15.08844426 72851,6917.867,95.437,541.231,538.233,0.0
52707.0,STARLINK-4007,PAYLOAD,2023-09-07 11:32:13,15.0884067,0.0001959,53.2167,278.0514,85.9763,274.1453,6.0155e-05,6.69e-06,0.0,0 STARLINK-4007,1 52707U 22053BD  23250.48070815  .00000669  00000-0  60155-4 0  9990,2 52707  53.2167 278.0514 0001959  85.9763 274.1453 15.08840670 73360,6917.878,95.438,541.099,538.388,0.0
52707.0,STARLINK-4007,PAYLOAD,2023-09-07 13:07:36,15.08841028,0.0001836,53.2154,277.7539,83.7038,276.4163,6.1267e-05,6.87e-06,0.0,0 STARLINK-4007,1 52707U 22053BD  23250.54694722  .00000687  00000-0  61267-4 0  9991,2 52707  53.2154 277.7539 0001836  83.7038 276.4163 15.08841028 73376,6917.877,95.437,541.012,538.472,0.0
52707.0,STARLINK-4007,PAYLOAD,2023-09-08 01:50:40,15.08869941,0.0001216,53.2153,275.374,76.314,283.7988,-0.00036765,-6.139e-05,0.0,0 STARLINK-4007,1 52707U 22053BD  23251.07685397 -.00006139  00000-0 -36765-3 0  9992,2 52707  53.2153 275.3740 0001216  76.3140 283.7988 15.08869941 72972,6917.789,95.436,540.495,538.813,0.0
52707.0,STARLINK-4007,PAYLOAD,2023-09-08 08:12:13,15.08839233,0.0001689,53.2158,274.184,90.121,269.9976,8.1086e-05,1.003e-05,0.0,0 STARLINK-4007,1 52707U 22053BD  23251.34182164  .00001003  00000-0  81086-4 0  9996,2 52707  53.2158 274.1840 0001689  90.1210 269.9976 15.08839233 73011,6917.883,95.438,540.916,538.579,0.0
52707.0,STARLINK-4007,PAYLOAD,2023-09-08 12:58:22,15.08842397,0.0001678,53.216,273.2913,92.1564,267.9621,0.00010261,1.345e-05,0.0,0 STARLINK-4007,1 52707U 22053BD  23251.54053900  .00001345  00000-0  10261-3 0  9998,2 52707  53.2160 273.2913 0001678  92.1564 267.9621 15.08842397 73523,6917.873,95.437,540.899,538.577,0.0
52707.0,STARLINK-4007,PAYLOAD,2023-09-09 01:41:28,15.08824484,0.0001663,53.2159,270.9121,99.6878,260.4302,0.00017162,2.443e-05,0.0,0 STARLINK-4007,1 52707U 22053BD  23252.07046932  .00002443  00000-0  17162-3 0  9991,2 52707  53.2159 270.9121 0001663  99.6878 260.4302 15.08824484 73127,6917.928,95.439,540.943,538.642,0.0
52707.0,STARLINK-4007,PAYLOAD,2023-09-09 08:03:00,15.0884017,0.000162,53.2164,269.7245,86.2287,273.8891,1.705e-05,-1.7e-07,0.0,0 STARLINK-4007,1 52707U 22053BD  23252.33542451 -.00000017  00000-0  17050-4 0  9990,2 52707  53.2164 269.7245 0001620  86.2287 273.8891 15.08840170 73160,6917.88,95.438,540.866,538.624,0.0
52707.0,STARLINK-4007,PAYLOAD,2023-09-09 12:49:09,15.08842706,0.0001587,53.2161,268.8314,92.6297,267.4877,4.9527e-05,5e-06,0.0,0 STARLINK-4007,1 52707U 22053BD  23252.53414170  .00000500  00000-0  49527-4 0  9998,2 52707  53.2161 268.8314 0001587  92.6297 267.4877 15.08842706 73674,6917.872,95.437,540.835,538.639,0.0
52707.0,STARLINK-4007,PAYLOAD,2023-09-10 06:18:24,15.08840257,0.0001567,53.2158,265.5607,95.1797,264.9374,4.0736e-05,3.6e-06,0.0,0 STARLINK-4007,1 52707U 22053BD  23253.26278449  .00000360  00000-0  40736-4 0  9993,2 52707  53.2158 265.5607 0001567  95.1797 264.9374 15.08840257 73785,6917.88,95.438,540.829,538.661,0.0
52707.0,STARLINK-4007,PAYLOAD,2023-09-10 17:26:06,15.08841801,0.0001579,53.2158,263.4792,101.0053,259.1117,2.6116e-05,1.28e-06,0.0,0 STARLINK-4007,1 52707U 22053BD  23253.72646391  .00000128  00000-0  26116-4 0  9997,2 52707  53.2158 263.4792 0001579 101.0053 259.1117 15.08841801 73374,6917.875,95.437,540.832,538.648,0.0
52707.0,STARLINK-4007,PAYLOAD,2023-09-11 01:23:03,15.088292,0.0001615,53.2157,261.9929,97.6474,262.4702,2.5127e-05,1.12e-06,0.0,0 STARLINK-4007,1 52707U 22053BD  23254.05767391  .00000112  00000-0  25127-4 0  9992,2 52707  53.2157 261.9929 0001615  97.6474 262.4702 15.08829200 73428,6917.913,95.438,540.896,538.661,0.0
52707.0,STARLINK-4007,PAYLOAD,2023-09-11 10:55:21,15.08846112,0.0001908,53.2171,260.21,99.827,260.2937,-0.0001595,-2.826e-05,0.0,0 STARLINK-4007,1 52707U 22053BD  23254.45510955 -.00002826  00000-0 -15950-3 0  9996,2 52707  53.2171 260.2100 0001908  99.8270 260.2937 15.08846112 73966,6917.862,95.437,541.047,538.407,0.0
52707.0,STARLINK-4007,PAYLOAD,2023-09-12 01:13:49,15.08838903,0.0001573,53.216,257.5326,93.5015,266.6157,7.937e-05,9.75e-06,0.0,0 STARLINK-4007,1 52707U 22053BD  23255.05126990  .00000975  00000-0  79370-4 0  9993,2 52707  53.2160 257.5326 0001573  93.5015 266.6157 15.08838903 73579,6917.884,95.438,540.837,538.661,0.0
52707.0,STARLINK-4007,PAYLOAD,2023-09-12 07:35:21,15.08845828,0.00016,53.2166,256.3435,94.7291,265.3883,9.628e-05,1.245e-05,0.0,0 STARLINK-4007,1 52707U 22053BD  23255.31622527  .00001245  00000-0  96280-4 0  9999,2 52707  53.2166 256.3435 0001600  94.7291 265.3883 15.08845828 74097,6917.863,95.437,540.834,538.621,0.0
52707.0,STARLINK-4007,PAYLOAD,2023-09-12 17:07:40,15.08840335,0.0001579,53.2159,254.5582,106.4469,253.6696,0.00010143,1.327e-05,0.0,0 STARLINK-4007,1 52707U 22053BD  23255.71366834  .00001327  00000-0  10143-3 0  9993,2 52707  53.2159 254.5582 0001579 106.4469 253.6696 15.08840335 74152,6917.879,95.438,540.837,538.652,0.0
52707.0,STARLINK-4007,PAYLOAD,2023-09-13 09:01:31,15.08848714,0.0001529,53.2158,251.5842,93.3216,266.7951,0.00020082,2.91e-05,0.0,0 STARLINK-4007,1 52707U 22053BD  23256.37606266  .00002910  00000-0  20082-3 0  9994,2 52707  53.2158 251.5842 0001529  93.3216 266.7951 15.08848714 73771,6917.854,95.437,540.776,538.661,0.0
52707.0,STARLINK-4007,PAYLOAD,2023-09-13 16:58:28,15.08837468,0.0001631,53.2156,250.0972,87.7881,272.3298,7.8939e-05,9.68e-06,0.0,0 STARLINK-4007,1 52707U 22053BD  23256.70727371  .00000968  00000-0  78939-4 0  9998,2 52707  53.2156 250.0972 0001631  87.7881 272.3298 15.08837468 73823,6917.888,95.438,540.881,538.625,0.0
52707.0,STARLINK-4007,PAYLOAD,2023-09-14 08:52:20,15.08833943,0.0001626,53.2166,247.1213,85.8475,274.2703,-5.5419e-05,-1.17e-05,0.0,0 STARLINK-4007,1 52707U 22053BD  23257.36968045 -.00001170  00000-0 -55419-4 0  9992,2 52707  53.2166 247.1213 0001626  85.8475 274.2703 15.08833943 73928,6917.899,95.438,540.889,538.639,0.0
52707.0,STARLINK-4007,PAYLOAD,2023-09-14 16:49:15,15.088406,0.0001506,53.2165,245.6364,91.5434,268.5731,3.9986e-05,3.48e-06,0.0,0 STARLINK-4007,1 52707U 22053BD  23257.70087454  .00000348  00000-0  39986-4 0  9991,2 52707  53.2165 245.6364 0001506  91.5434 268.5731 15.08840600 73973,6917.879,95.438,540.785,538.702,0.0
52707.0,STARLINK-4007,PAYLOAD,2023-09-15 08:43:05,15.08856373,0.0001513,53.216,242.6614,93.4406,266.676,8.7605e-05,1.107e-05,0.0,0 STARLINK-4007,1 52707U 22053BD  23258.36326256  .00001107  00000-0  87605-4 0  9995,2 52707  53.2160 242.6614 0001513  93.4406 266.6760 15.08856373 74078,6917.83,95.437,540.742,538.649,0.0
52707.0,STARLINK-4007,PAYLOAD,2023-09-15 16:40:01,15.08851482,0.0001464,53.2152,241.1757,92.1229,267.9931,5.5491e-05,5.96e-06,0.0,0 STARLINK-4007,1 52707U 22053BD  23258.69446504  .00000596  00000-0  55491-4 0  9999,2 52707  53.2152 241.1757 0001464  92.1229 267.9931 15.08851482 74121,6917.845,95.437,540.723,538.698,0.0
52707.0,STARLINK-4007,PAYLOAD,2023-09-16 02:12:21,15.08840525,0.0001581,53.2143,239.3915,96.6335,263.4837,0.00024977,3.689e-05,0.0,0 STARLINK-4007,1 52707U 22053BD  23259.09191506  .00003689  00000-0  24977-3 0  9993,2 52707  53.2143 239.3915 0001581  96.6335 263.4837 15.08840525 74181,6917.879,95.438,540.838,538.65,0.0
52707.0,STARLINK-4007,PAYLOAD,2023-09-16 08:33:53,15.0884763,0.0001565,53.2147,238.2022,94.1915,265.9257,0.00023687,3.485e-05,0.0,0 STARLINK-4007,1 52707U 22053BD  23259.35687209  .00003485  00000-0  23687-3 0  9993,2 52707  53.2147 238.2022 0001565  94.1915 265.9257 15.08847630 74706,6917.857,95.437,540.805,538.639,0.0
52707.0,STARLINK-4007,PAYLOAD,2023-09-17 06:49:17,15.08844314,0.0001652,53.2155,234.0388,97.7563,262.3617,5.4526e-05,5.8e-06,0.0,0 STARLINK-4007,1 52707U 22053BD  23260.28423386  .00000580  00000-0  54526-4 0  9991,2 52707  53.2155 234.0388 0001652  97.7563 262.3617 15.08844314 74841,6917.867,95.437,540.875,538.589,0.0
52707.0,STARLINK-4007,PAYLOAD,2023-09-18 01:53:54,15.08858628,0.0001705,53.2155,230.4703,94.1521,265.9666,-0.00037881,-6.315e-05,0.0,0 STARLINK-4007,1 52707U 22053BD  23261.07910401 -.00006315  00000-0 -37881-3 0  9996,2 52707  53.2155 230.4703 0001705  94.1521 265.9666 15.08858628 74482,6917.823,95.436,540.868,538.509,0.0
